{"type": "FeatureCollection", "features": [{"type": "Feature", "properties": {"norad_id": 22675, "name": "COSMOS 2251", "group": "cosmos-2251-debris", "lat": -19.3799867706227, "lon": 134.05625594233027, "alt_km": 802.8280597884996, "timestamp": "2025-12-16T21:38:57.567547+00:00", "meta": {"OBJECT_NAME": "COSMOS 2251", "OBJECT_ID": "1993-036A", "EPOCH": "2025-12-16T07:19:03.887904", "MEAN_MOTION": 14.33205931, "ECCENTRICITY": 0.00241192, "INCLINATION": 74.0399, "RA_OF_ASC_NODE": 309.3693, "ARG_OF_PERICENTER": 30.6293, "MEAN_ANOMALY": 329.626, "EPHEMERIS_TYPE": 0, "CLASSIFICATION_TYPE": "U", "NORAD_CAT_ID": 22675, "ELEMENT_SET_NO": 999, "REV_AT_EPOCH": 69824, "BSTAR": 5.2502187e-05, "MEAN_MOTION_DOT": 1.19e-06, "MEAN_MOTION_DDOT": 0}, "tle": {"line1": "1 22675U 93036A   25350.30490611  .00000119  00000+0  52502-4 0  9990", "line2": "2 22675  74.0399 309.3693 0024119  30.6293 329.6260 14.33205931698247"}}, "geometry": {"type": "Point", "coordinates": [134.05625594233027, -19.3799867706227]}}, {"type": "Feature", "properties": {"norad_id": 33757, "name": "COSMOS 2251 DEB", "group": "cosmos-2251-debris", "lat": -46.898433736377, "lon": 153.8210907222526, "alt_km": 791.2972502433149, "timestamp": "2025-12-16T21:38:57.567575+00:00", "meta": {"OBJECT_NAME": "COSMOS 2251 DEB", "OBJECT_ID": "1993-036E", "EPOCH": "2025-12-16T07:42:51.865632", "MEAN_MOTION": 14.32581966, "ECCENTRICITY": 0.00153942, "INCLINATION": 74.037, "RA_OF_ASC_NODE": 317.0709, "ARG_OF_PERICENTER": 329.7558, "MEAN_ANOMALY": 146.5185, "EPHEMERIS_TYPE": 0, "CLASSIFICATION_TYPE": "U", "NORAD_CAT_ID": 33757, "ELEMENT_SET_NO": 999, "REV_AT_EPOCH": 88047, "BSTAR": 4.4586375e-05, "MEAN_MOTION_DOT": 9.5e-07, "MEAN_MOTION_DDOT": 0}, "tle": {"line1": "1 33757U 93036E   25350.32143363  .00000095  00000+0  44586-4 0  9990", "line2": "2 33757  74.0370 317.0709 0015394 329.7558 146.5185 14.32581966880478"}}, "geometry": {"type": "Point", "coordinates": [153.8210907222526, -46.898433736377]}}, {"type": "Feature", "properties": {"norad_id": 33758, "name": "COSMOS 2251 DEB", "group": "cosmos-2251-debris", "lat": 71.31703334584847, "lon": -30.696846120374882, "alt_km": 725.3322280555076, "timestamp": "2025-12-16T21:38:57.567590+00:00", "meta": {"OBJECT_NAME": "COSMOS 2251 DEB", "OBJECT_ID": "1993-036F", "EPOCH": "2025-12-16T08:46:52.402656", "MEAN_MOTION": 14.51617089, "ECCENTRICITY": 0.00172919, "INCLINATION": 74.0275, "RA_OF_ASC_NODE": 208.1998, "ARG_OF_PERICENTER": 274.776, "MEAN_ANOMALY": 264.2387, "EPHEMERIS_TYPE": 0, "CLASSIFICATION_TYPE": "U", "NORAD_CAT_ID": 33758, "ELEMENT_SET_NO": 999, "REV_AT_EPOCH": 88357, "BSTAR": 0.00053980448, "MEAN_MOTION_DOT": 2.14e-05, "MEAN_MOTION_DDOT": 0}, "tle": {"line1": "1 33758U 93036F   25350.36588429  .00002140  00000+0  53980-3 0  9991", "line2": "2 33758  74.0275 208.1998 0017291 274.7760 264.2387 14.51617089883578"}}, "geometry": {"type": "Point", "coordinates": [-30.696846120374882, 71.31703334584847]}}, {"type": "Feature", "properties": {"norad_id": 33760, "name": "COSMOS 2251 DEB", "group": "cosmos-2251-debris", "lat": 16.0429285114721, "lon": 89.09523493675536, "alt_km": 785.7692390625116, "timestamp": "2025-12-16T21:38:57.567602+00:00", "meta": {"OBJECT_NAME": "COSMOS 2251 DEB", "OBJECT_ID": "1993-036H", "EPOCH": "2025-12-16T06:24:22.969728", "MEAN_MOTION": 14.35675186, "ECCENTRICITY": 0.00200147, "INCLINATION": 74.0322, "RA_OF_ASC_NODE": 274.9831, "ARG_OF_PERICENTER": 12.4532, "MEAN_ANOMALY": 109.3574, "EPHEMERIS_TYPE": 0, "CLASSIFICATION_TYPE": "U", "NORAD_CAT_ID": 33760, "ELEMENT_SET_NO": 999, "REV_AT_EPOCH": 88175, "BSTAR": 0.00010338537, "MEAN_MOTION_DOT": 2.73e-06, "MEAN_MOTION_DDOT": 0}, "tle": {"line1": "1 33760U 93036H   25350.26693252  .00000273  00000+0  10339-3 0  9990", "line2": "2 33760  74.0322 274.9831 0020014  12.4532 109.3574 14.35675186881751"}}, "geometry": {"type": "Point", "coordinates": [89.09523493675536, 16.0429285114721]}}, {"type": "Feature", "properties": {"norad_id": 33761, "name": "COSMOS 2251 DEB", "group": "cosmos-2251-debris", "lat": -14.155725759674121, "lon": 68.58088206471211, "alt_km": 764.7777834266262, "timestamp": "2025-12-16T21:38:57.567614+00:00", "meta": {"OBJECT_NAME": "COSMOS 2251 DEB", "OBJECT_ID": "1993-036J", "EPOCH": "2025-12-16T04:40:42.791808", "MEAN_MOTION": 14.42556247, "ECCENTRICITY": 0.00231523, "INCLINATION": 74.0369, "RA_OF_ASC_NODE": 245.7523, "ARG_OF_PERICENTER": 325.505, "MEAN_ANOMALY": 158.6126, "EPHEMERIS_TYPE": 0, "CLASSIFICATION_TYPE": "U", "NORAD_CAT_ID": 33761, "ELEMENT_SET_NO": 999, "REV_AT_EPOCH": 88284, "BSTAR": 0.00032944187, "MEAN_MOTION_DOT": 1.07e-05, "MEAN_MOTION_DDOT": 0}, "tle": {"line1": "1 33761U 93036J   25350.19493972  .00001070  00000+0  32944-3 0  9992", "line2": "2 33761  74.0369 245.7523 0023152 325.5050 158.6126 14.42556247882841"}}, "geometry": {"type": "Point", "coordinates": [68.58088206471211, -14.155725759674121]}}, {"type": "Feature", "properties": {"norad_id": 33762, "name": "COSMOS 2251 DEB", "group": "cosmos-2251-debris", "lat": 65.41882415716735, "lon": -18.862132907778186, "alt_km": 768.7403898475877, "timestamp": "2025-12-16T21:38:57.567626+00:00", "meta": {"OBJECT_NAME": "COSMOS 2251 DEB", "OBJECT_ID": "1993-036K", "EPOCH": "2025-12-16T06:47:41.004672", "MEAN_MOTION": 14.33664946, "ECCENTRICITY": 0.00151451, "INCLINATION": 74.0419, "RA_OF_ASC_NODE": 303.5483, "ARG_OF_PERICENTER": 4.123, "MEAN_ANOMALY": 113.6155, "EPHEMERIS_TYPE": 0, "CLASSIFICATION_TYPE": "U", "NORAD_CAT_ID": 33762, "ELEMENT_SET_NO": 999, "REV_AT_EPOCH": 88098, "BSTAR": 5.2363895e-05, "MEAN_MOTION_DOT": 1.19e-06, "MEAN_MOTION_DDOT": 0}, "tle": {"line1": "1 33762U 93036K   25350.28311348  .00000119  00000+0  52364-4 0  9991", "line2": "2 33762  74.0419 303.5483 0015145   4.1230 113.6155 14.33664946880981"}}, "geometry": {"type": "Point", "coordinates": [-18.862132907778186, 65.41882415716735]}}, {"type": "Feature", "properties": {"norad_id": 33764, "name": "COSMOS 2251 DEB", "group": "cosmos-2251-debris", "lat": -57.643172807920045, "lon": -121.89281926066653, "alt_km": 760.6078594937335, "timestamp": "2025-12-16T21:38:57.567637+00:00", "meta": {"OBJECT_NAME": "COSMOS 2251 DEB", "OBJECT_ID": "1993-036M", "EPOCH": "2025-12-16T05:49:39.411264", "MEAN_MOTION": 14.3951822, "ECCENTRICITY": 0.00237893, "INCLINATION": 74.0336, "RA_OF_ASC_NODE": 266.1886, "ARG_OF_PERICENTER": 231.3041, "MEAN_ANOMALY": 252.0506, "EPHEMERIS_TYPE": 0, "CLASSIFICATION_TYPE": "U", "NORAD_CAT_ID": 33764, "ELEMENT_SET_NO": 999, "REV_AT_EPOCH": 88207, "BSTAR": 0.00030999683, "MEAN_MOTION_DOT": 9.44e-06, "MEAN_MOTION_DDOT": 0}, "tle": {"line1": "1 33764U 93036M   25350.24281726  .00000944  00000+0  31000-3 0  9994", "line2": "2 33764  74.0336 266.1886 0023789 231.3041 252.0506 14.39518220882078"}}, "geometry": {"type": "Point", "coordinates": [-121.89281926066653, -57.643172807920045]}}, {"type": "Feature", "properties": {"norad_id": 33765, "name": "COSMOS 2251 DEB", "group": "cosmos-2251-debris", "lat": 68.9167159437503, "lon": -63.56667822562083, "alt_km": 568.028090499819, "timestamp": "2025-12-16T21:38:57.567648+00:00", "meta": {"OBJECT_NAME": "COSMOS 2251 DEB", "OBJECT_ID": "1993-036N", "EPOCH": "2025-12-16T06:04:44.065056", "MEAN_MOTION": 15.10202042, "ECCENTRICITY": 0.0065003, "INCLINATION": 74.0076, "RA_OF_ASC_NODE": 165.8399, "ARG_OF_PERICENTER": 257.3322, "MEAN_ANOMALY": 281.2128, "EPHEMERIS_TYPE": 0, "CLASSIFICATION_TYPE": "U", "NORAD_CAT_ID": 33765, "ELEMENT_SET_NO": 999, "REV_AT_EPOCH": 89671, "BSTAR": 0.0012981103, "MEAN_MOTION_DOT": 0.0002233, "MEAN_MOTION_DDOT": 0}, "tle": {"line1": "1 33765U 93036N   25350.25328779  .00022330  00000+0  12981-2 0  9995", "line2": "2 33765  74.0076 165.8399 0065003 257.3322 281.2128 15.10202042896711"}}, "geometry": {"type": "Point", "coordinates": [-63.56667822562083, 68.9167159437503]}}, {"type": "Feature", "properties": {"norad_id": 33766, "name": "COSMOS 2251 DEB", "group": "cosmos-2251-debris", "lat": -74.16843607537447, "lon": 39.2011675743029, "alt_km": 758.4026853904516, "timestamp": "2025-12-16T21:38:57.567659+00:00", "meta": {"OBJECT_NAME": "COSMOS 2251 DEB", "OBJECT_ID": "1993-036P", "EPOCH": "2025-12-16T08:40:32.014560", "MEAN_MOTION": 14.34944583, "ECCENTRICITY": 0.00643291, "INCLINATION": 74.1854, "RA_OF_ASC_NODE": 128.4022, "ARG_OF_PERICENTER": 330.7727, "MEAN_ANOMALY": 28.9831, "EPHEMERIS_TYPE": 0, "CLASSIFICATION_TYPE": "U", "NORAD_CAT_ID": 33766, "ELEMENT_SET_NO": 999, "REV_AT_EPOCH": 87797, "BSTAR": 0.00047207655, "MEAN_MOTION_DOT": 1.349e-05, "MEAN_MOTION_DDOT": 0}, "tle": {"line1": "1 33766U 93036P   25350.36148165  .00001349  00000+0  47208-3 0  9995", "line2": "2 33766  74.1854 128.4022 0064329 330.7727  28.9831 14.34944583877972"}}, "geometry": {"type": "Point", "coordinates": [39.2011675743029, -74.16843607537447]}}, {"type": "Feature", "properties": {"norad_id": 33768, "name": "COSMOS 2251 DEB", "group": "cosmos-2251-debris", "lat": 40.70405557613927, "lon": 18.925932564917016, "alt_km": 1195.7787214890277, "timestamp": "2025-12-16T21:38:57.567670+00:00", "meta": {"OBJECT_NAME": "COSMOS 2251 DEB", "OBJECT_ID": "1993-036R", "EPOCH": "2025-12-16T02:17:34.950624", "MEAN_MOTION": 13.58457686, "ECCENTRICITY": 0.03664999, "INCLINATION": 74.0675, "RA_OF_ASC_NODE": 214.452, "ARG_OF_PERICENTER": 11.4642, "MEAN_ANOMALY": 139.6301, "EPHEMERIS_TYPE": 0, "CLASSIFICATION_TYPE": "U", "NORAD_CAT_ID": 33768, "ELEMENT_SET_NO": 999, "REV_AT_EPOCH": 83341, "BSTAR": 0.00031236772, "MEAN_MOTION_DOT": 3.32e-06, "MEAN_MOTION_DDOT": 0}, "tle": {"line1": "1 33768U 93036R   25350.09554341  .00000332  00000+0  31237-3 0  9990", "line2": "2 33768  74.0675 214.4520 0366499  11.4642 139.6301 13.58457686833416"}}, "geometry": {"type": "Point", "coordinates": [18.925932564917016, 40.70405557613927]}}]}